[{"OBJECT_NAME":"STARLINK-5644","OBJECT_ID":"2023-013AQ","EPOCH":"2026-03-09T01:10:03.131904","MEAN_MOTION":15.02537816,"ECCENTRICITY":0.00014034,"INCLINATION":43.0029,"RA_OF_ASC_NODE":316.749,"ARG_OF_PERICENTER":267.6266,"MEAN_ANOMALY":92.4415,"EPHEMERIS_TYPE":0,"CLASSIFICATION_TYPE":"U","NORAD_CAT_ID":55369,"ELEMENT_SET_NO":999,"REV_AT_EPOCH":17146,"BSTAR":6.470814e-6,"MEAN_MOTION_DOT":-1.16e-6,"MEAN_MOTION_DDOT":0},{"OBJECT_NAME":"DELTA 2 R\/B","OBJECT_ID":"1990-074B","EPOCH":"2026-03-09T13:41:18.722976","MEAN_MOTION":14.63139944,"ECCENTRICITY":0.0331131,"INCLINATION":24.7574,"RA_OF_ASC_NODE":207.7051,"ARG_OF_PERICENTER":168.7615,"MEAN_ANOMALY":192.0502,"EPHEMERIS_TYPE":0,"CLASSIFICATION_TYPE":"U","NORAD_CAT_ID":20763,"ELEMENT_SET_NO":999,"REV_AT_EPOCH":86338,"BSTAR":0.00071917,"MEAN_MOTION_DOT":8.858e-5,"MEAN_MOTION_DDOT":0}]
